STARLINK-3230           
1 50845U 22001AU  26196.74370610  .00000450  00000+0  27931-4 0  9993
2 50845  53.1605 321.1219 0000898  67.6865 292.4230 15.29354401249647
STARLINK-3308           
1 50846U 22001AV  26196.77744303 -.00000212  00000+0  49269-5 0  9997
2 50846  53.1617 320.4295 0001323  83.9721 276.1431 15.31702636249656
STARLINK-3315           
1 50848U 22001AX  26196.83335647  .00093980  00000+0  30666-2 0  9994
2 50848  53.1607 321.9593 0001781  63.4087  68.4929 15.31018566  5791
STARLINK-3311           
1 50849U 22001AY  26196.34201237  .00001705  00000+0  61621-4 0  9999
2 50849  53.1618 323.3096 0000885  87.6105 272.4999 15.34374575249579
STARLINK-3312           
1 50850U 22001AZ  26196.56877022  .00006012  00000+0  27001-3 0  9995
2 50850  53.1610 283.2506 0001068  48.2399 311.8690 15.22508997250690
STARLINK-3314           
1 50851U 22001BA  26196.53099300 -.00000352  00000+0  63642-6 0  9994
2 50851  53.1612 322.5128 0001040  80.0517 280.0603 15.33546616249608
STARLINK-3366           
1 51104U 22005A   26196.82930885  .00008948  00000+0  55916-3 0  9994
2 51104  53.1919  73.5582 0001197 118.9042 241.2070 15.10161898248228
STARLINK-3350           
1 51105U 22005B   26196.82206538  .00000361  00000+0  40755-4 0  9993
2 51105  53.1602  73.6469 0001311  96.0104 264.1037 15.08829292248229
STARLINK-3176           
1 51106U 22005C   26196.00506816 -.00033242  00000+0 -20709-2 0  9997
2 51106  53.1607  77.3178 0000718  71.4823 288.6246 15.09002864248095
STARLINK-3362           
1 51108U 22005E   26196.81839573 -.00000566  00000+0 -17441-4 0  9991
2 51108  53.1615  73.6654 0001655 108.9189 251.1982 15.08819400248224
STARLINK-3358           
1 51109U 22005F   26196.83335647 -.00027130  00000+0 -16081-2 0  9990
2 51109  53.1592  73.4989 0001426  97.9033 268.6683 15.10700640  5780
STARLINK-3344           
1 51110U 22005G   26196.80734132 -.00000483  00000+0 -12233-4 0  9990
2 51110  53.1605  73.6894 0001812  94.4426 265.6773 15.08833779248223
STARLINK-3173           
1 51111U 22005H   26196.05662505 -.00001235  00000+0 -59463-4 0  9994
2 51111  53.1598  77.0857 0001657 108.8738 251.2434 15.08844680248100
STARLINK-3374           
1 51112U 22005J   26196.80461855  .00002458  00000+0  17256-3 0  9992
2 51112  53.1606  73.6979 0001557 113.3653 246.7502 15.08817199248227
STARLINK-3372           
1 51113U 22005K   26195.93518104  .00000560  00000+0  53298-4 0  9995
2 51113  53.1603  77.6314 0001337  87.9150 272.1995 15.08837891248080
STARLINK-3375           
1 51114U 22005L   26196.83335647  .00007462  00000+0  39710-3 0  9995
2 51114  53.1604  73.4862 0002721  81.8423  77.2791 15.16206544  5845
STARLINK-3397           
1 51115U 22005M   26195.99406156  .00000704  00000+0  62318-4 0  9999
2 51115  53.1599  77.3676 0001443  95.6139 264.5017 15.08838921248091
STARLINK-3243           
1 51116U 22005N   26196.79998711 -.00000243  00000+0  28204-5 0  9998
2 51116  53.1601  73.7469 0001519  74.1189 285.9970 15.08829469248213
STARLINK-3391           
1 51117U 22005P   26196.82941696 -.00000489  00000+0 -12593-4 0  9999
2 51117  53.1599  73.5000 0001765  88.9533 271.1660 15.08832418248220
STARLINK-3394           
1 51118U 22005Q   26196.06398547  .00000115  00000+0  25297-4 0  9996
2 51118  53.1603  77.0523 0001550  96.0183 264.0985 15.08837220248103
STARLINK-3398           
1 51120U 22005S   26196.83038694  .00000315  00000+0  37876-4 0  9996
2 51120  53.1604  73.6180 0001552  89.6071 270.5098 15.08828577248229
STARLINK-3399           
1 51121U 22005T   26196.84510500  .00000798  00000+0  68251-4 0  9995
2 51121  53.1598  73.5495 0001298  93.6962 266.4178 15.08833294248226
STARLINK-3392           
1 51123U 22005V   26196.82574794  .00000508  00000+0  50056-4 0  9993
2 51123  53.1610  73.6303 0001451  98.8029 261.3127 15.08826645248224
STARLINK-3389           
1 51124U 22005W   26196.00786475  .00000572  00000+0  54072-4 0  9998
2 51124  53.1599  87.3034 0001536  93.5485 266.5682 15.08833744247967
STARLINK-3387           
1 51125U 22005X   26196.83335647  .00021416  00000+0  74496-3 0  9992
2 51125  53.1593  81.9640 0001313  94.7366 253.9253 15.29677976  5680
STARLINK-3386           
1 51126U 22005Y   26196.81627338  .00002715  00000+0  99156-4 0  9994
2 51126  53.1609  80.3592 0001166  86.2889 273.8246 15.31720110248134
STARLINK-3370           
1 51127U 22005Z   26196.08454291  .00000812  00000+0  37933-4 0  9991
2 51127  53.1612  83.6541 0001607  91.4509 268.6676 15.31703762248016
STARLINK-3400           
1 51128U 22005AA  26196.84322593  .00000071  00000+0  22564-4 0  9996
2 51128  53.1613  83.5506 0001616 104.6163 255.5008 15.08831380248073
STARLINK-3396           
1 51129U 22005AB  26196.14130083  .00000417  00000+0  44290-4 0  9995
2 51129  53.1599  86.7040 0001423  92.9675 267.1479 15.08835355247973
STARLINK-3395           
1 51130U 22005AC  26196.72178978  .00001004  00000+0  81185-4 0  9993
2 51130  53.1603  84.0964 0001309  90.6880 269.4261 15.08816000248053
