OBJECT_NAME,OBJECT_ID,EPOCH,MEAN_MOTION,ECCENTRICITY,INCLINATION,RA_OF_ASC_NODE,ARG_OF_PERICENTER,MEAN_ANOMALY,EPHEMERIS_TYPE,CLASSIFICATION_TYPE,NORAD_CAT_ID,ELEMENT_SET_NO,REV_AT_EPOCH,BSTAR,MEAN_MOTION_DOT,MEAN_MOTION_DDOT
STARLINK-3230,2022-001AU,2026-07-15T17:50:56.207040,15.29354401,.0000898,53.1605,321.1219,67.6865,292.4230,0,U,50845,999,24964,.27931E-4,.45E-5,0
STARLINK-3308,2022-001AV,2026-07-15T18:39:31.077792,15.31702636,.0001323,53.1617,320.4295,83.9721,276.1431,0,U,50846,999,24965,.49269E-5,-.212E-5,0
STARLINK-3315,2022-001AX,2026-07-15T20:00:01.999008,15.31018566,.0001781,53.1607,321.9593,63.4087,68.4929,0,U,50848,999,579,.30666E-2,.9398E-3,0
STARLINK-3311,2022-001AY,2026-07-15T08:12:29.868768,15.34374575,.00008854,53.1618,323.3096,87.6105,272.4999,0,U,50849,999,24957,.6162069E-4,.1705E-4,0
STARLINK-3312,2022-001AZ,2026-07-15T13:39:01.747008,15.22508997,.0001068,53.1610,283.2506,48.2399,311.8690,0,U,50850,999,25069,.27001E-3,.6012E-4,0
STARLINK-3314,2022-001BA,2026-07-15T12:44:37.795200,15.33546616,.00010407,53.1612,322.5128,80.0517,280.0603,0,U,50851,999,24960,.636424E-6,-.352E-5,0
STARLINK-3366,2022-005A,2026-07-15T19:54:12.284640,15.10161898,.0001197,53.1919,73.5582,118.9042,241.2070,0,U,51104,999,24822,.55916E-3,.8948E-4,0
STARLINK-3350,2022-005B,2026-07-15T19:43:46.448832,15.08829292,.0001311,53.1602,73.6469,96.0104,264.1037,0,U,51105,999,24822,.40755E-4,.361E-5,0
STARLINK-3176,2022-005C,2026-07-15T00:07:17.889024,15.09002864,.00007182,53.1607,77.3178,71.4823,288.6246,0,U,51106,999,24809,-.20709028E-2,-.33242E-3,0
STARLINK-3362,2022-005E,2026-07-15T19:38:29.391072,15.08819400,.0001655,53.1615,73.6654,108.9189,251.1982,0,U,51108,999,24822,-.17441E-4,-.566E-5,0
STARLINK-3358,2022-005F,2026-07-15T20:00:01.999008,15.10700640,.0001426,53.1592,73.4989,97.9033,268.6683,0,U,51109,999,578,-.16081E-2,-.2713E-3,0
STARLINK-3344,2022-005G,2026-07-15T19:22:34.290048,15.08833779,.0001812,53.1605,73.6894,94.4426,265.6773,0,U,51110,999,24822,-.12233E-4,-.483E-5,0
STARLINK-3173,2022-005H,2026-07-15T01:21:32.404320,15.08844680,.00016573,53.1598,77.0857,108.8738,251.2434,0,U,51111,999,24810,-.59462775E-4,-.1235E-4,0
STARLINK-3374,2022-005J,2026-07-15T19:18:39.042720,15.08817199,.0001557,53.1606,73.6979,113.3653,246.7502,0,U,51112,999,24822,.17256E-3,.2458E-4,0
STARLINK-3372,2022-005K,2026-07-14T22:26:39.641856,15.08837891,.00013378,53.1603,77.6314,87.9150,272.1995,0,U,51113,999,24808,.53298356E-4,.56E-5,0
STARLINK-3375,2022-005L,2026-07-15T20:00:01.999008,15.16206544,.0002721,53.1604,73.4862,81.8423,77.2791,0,U,51114,999,584,.3971E-3,.7462E-4,0
STARLINK-3397,2022-005M,2026-07-14T23:51:26.918784,15.08838921,.0001443,53.1599,77.3676,95.6139,264.5017,0,U,51115,999,24809,.62318172E-4,.704E-5,0
STARLINK-3243,2022-005N,2026-07-15T19:11:58.886304,15.08829469,.0001519,53.1601,73.7469,74.1189,285.9970,0,U,51116,999,24821,.28204E-5,-.243E-5,0
STARLINK-3391,2022-005P,2026-07-15T19:54:21.625344,15.08832418,.0001765,53.1599,73.5000,88.9533,271.1660,0,U,51117,999,24822,-.12593E-4,-.489E-5,0
STARLINK-3394,2022-005Q,2026-07-15T01:32:08.344608,15.08837220,.00015503,53.1603,77.0523,96.0183,264.0985,0,U,51118,999,24810,.25297302E-4,.115E-5,0
STARLINK-3398,2022-005S,2026-07-15T19:55:45.431616,15.08828577,.0001552,53.1604,73.6180,89.6071,270.5098,0,U,51120,999,24822,.37876E-4,.315E-5,0
STARLINK-3399,2022-005T,2026-07-15T20:16:57.072000,15.08833294,.0001298,53.1598,73.5495,93.6962,266.4178,0,U,51121,999,24822,.68251E-4,.798E-5,0
STARLINK-3392,2022-005V,2026-07-15T19:49:04.622016,15.08826645,.0001451,53.1610,73.6303,98.8029,261.3127,0,U,51123,999,24822,.50056E-4,.508E-5,0
STARLINK-3389,2022-005W,2026-07-15T00:11:19.514400,15.08833744,.00015367,53.1599,87.3034,93.5485,266.5682,0,U,51124,999,24796,.54072157E-4,.572E-5,0
STARLINK-3387,2022-005X,2026-07-15T20:00:01.999008,15.29677976,.0001313,53.1593,81.9640,94.7366,253.9253,0,U,51125,999,568,.74496E-3,.21416E-3,0
STARLINK-3386,2022-005Y,2026-07-15T19:35:26.020032,15.31720110,.0001166,53.1609,80.3592,86.2889,273.8246,0,U,51126,999,24813,.99156E-4,.2715E-4,0
STARLINK-3370,2022-005Z,2026-07-15T02:01:44.507424,15.31703762,.00016073,53.1612,83.6541,91.4509,268.6676,0,U,51127,999,24801,.37932673E-4,.812E-5,0
STARLINK-3400,2022-005AA,2026-07-15T20:14:14.720352,15.08831380,.0001616,53.1613,83.5506,104.6163,255.5008,0,U,51128,999,24807,.22564E-4,.71E-6,0
STARLINK-3396,2022-005AB,2026-07-15T03:23:28.391712,15.08835355,.00014239,53.1599,86.7040,92.9675,267.1479,0,U,51129,999,24797,.44290089E-4,.417E-5,0
STARLINK-3395,2022-005AC,2026-07-15T17:19:22.636992,15.08816000,.0001309,53.1603,84.0964,90.6880,269.4261,0,U,51130,999,24805,.81185E-4,.1004E-4,0
